#
# this file is automatically produced by convkeps.pl
#
# Last update: Fri Mar 17 15:38:46 2000
#

package Sun;

%keps = (
  'AO-21' => {
    orbit => '45778',
    raan => '30.0706',
    meananomaly => '1.6668',
    eccentricity => '0.0035671',
    meanmotion => '13.74681138',
    inclination => '82.9437',
    number => '91006',
    argperigee => '358.4382',
    mm1 => '9.4e-07',
    mm2 => '0',
    bstar => '8.2657e-05',
    id => '21087',
    elset => '137',
    epoch => '74.98787606'
  },
  'RS-10/11' => {
    orbit => '63771',
    raan => '217.8128',
    meananomaly => '34.1579',
    eccentricity => '0.0011864',
    meanmotion => '13.72475175',
    inclination => '82.9239',
    number => '87054',
    argperigee => '325.8809',
    mm1 => '1.63e-06',
    mm2 => '0',
    bstar => '0.0001615',
    id => '18129',
    elset => '759',
    epoch => '75.47267559'
  },
  'FO-20' => {
    orbit => '47318',
    raan => '223.0128',
    meananomaly => '85.0504',
    eccentricity => '0.0539832',
    meanmotion => '12.8326499',
    inclination => '99.037',
    number => '90013',
    argperigee => '268.8743',
    mm1 => '2.5e-07',
    mm2 => '0',
    bstar => '0.00013639',
    id => '20480',
    elset => '211',
    epoch => '74.88710677'
  },
  RESURS => {
    orbit => '8727',
    raan => '151.7197',
    meananomaly => '345.0079',
    eccentricity => '0.0001349',
    meanmotion => '14.22668713',
    inclination => '98.7287',
    number => '98043',
    argperigee => '15.114',
    mm1 => '1.8e-06',
    mm2 => '0',
    bstar => '0.0001',
    id => '25394',
    elset => '702',
    epoch => '75.17150875'
  },
  OCS => {
    orbit => '710',
    raan => '282.2692',
    meananomaly => '320.516',
    eccentricity => '0.0036291',
    meanmotion => '14.37487503',
    inclination => '100.2245',
    number => '4',
    argperigee => '39.9279',
    mm1 => '0.00038905',
    mm2 => '0',
    bstar => '0.012903',
    id => '26062',
    elset => '73',
    epoch => '76.59180859'
  },
  'AO-27' => {
    orbit => '33704',
    raan => '135.5591',
    meananomaly => '187.2381',
    eccentricity => '0.0008314',
    meanmotion => '14.28061158',
    inclination => '98.4192',
    number => '93061',
    argperigee => '172.8922',
    mm1 => '5.43e-06',
    mm2 => '0',
    bstar => '0.00023531',
    id => '22825',
    elset => '799',
    epoch => '75.07890723'
  },
  POSAT => {
    orbit => '33715',
    raan => '136.572',
    meananomaly => '203.6254',
    eccentricity => '0.0009263',
    meanmotion => '14.28605118',
    inclination => '98.4209',
    number => '93061',
    argperigee => '156.5347',
    mm1 => '8.48e-06',
    mm2 => '0',
    bstar => '0.00035424',
    id => '22829',
    elset => '793',
    epoch => '75.12181048'
  },
  MIR => {
    orbit => '80454',
    raan => '14.3872',
    meananomaly => '291.016',
    eccentricity => '0.0004241',
    meanmotion => '15.76797117',
    inclination => '51.6506',
    number => '86017',
    argperigee => '69.1302',
    mm1 => '0.00072726',
    mm2 => '0',
    bstar => '0.00044229',
    id => '16609',
    elset => '432',
    epoch => '76.48819479'
  },
  'RS-12/13' => {
    orbit => '45681',
    raan => '255.2358',
    meananomaly => '332.1718',
    eccentricity => '0.0030359',
    meanmotion => '13.74176118',
    inclination => '82.9175',
    number => '91007',
    argperigee => '28.106',
    mm1 => '1.64e-06',
    mm2 => '0',
    bstar => '0.00015731',
    id => '21089',
    elset => '229',
    epoch => '75.51720877'
  },
  JAWSAT => {
    orbit => '693',
    raan => '280.8828',
    meananomaly => '304.7691',
    eccentricity => '0.003852',
    meanmotion => '14.34110882',
    inclination => '100.2316',
    number => '4',
    argperigee => '55.7126',
    mm1 => '7.8e-06',
    mm2 => '0',
    bstar => '0.00029735',
    id => '26065',
    elset => '32',
    epoch => '75.52219673'
  },
  'MET-3/5' => {
    orbit => '41258',
    raan => '75.0089',
    meananomaly => '1.3771',
    eccentricity => '0.0013974',
    meanmotion => '13.16894612',
    inclination => '82.5532',
    number => '91056',
    argperigee => '358.7313',
    mm1 => '5.1e-07',
    mm2 => '0',
    bstar => '0.0001',
    id => '21655',
    elset => '292',
    epoch => '75.12812803'
  },
  'KO-23' => {
    orbit => '35658',
    raan => '207.8887',
    meananomaly => '15.1832',
    eccentricity => '0.0004065',
    meanmotion => '12.86336878',
    inclination => '66.08',
    number => '92052',
    argperigee => '344.9064',
    mm1 => '-3.7e-07',
    mm2 => '0',
    bstar => '0.0001',
    id => '22077',
    elset => '921',
    epoch => '74.85397735'
  },
  'FO-29' => {
    orbit => '17672',
    raan => '356.2756',
    meananomaly => '256.4896',
    eccentricity => '0.0352254',
    meanmotion => '13.52702842',
    inclination => '98.59',
    number => '96046',
    argperigee => '107.5059',
    mm1 => '4.7e-07',
    mm2 => '0',
    bstar => '8.1089e-05',
    id => '24278',
    elset => '315',
    epoch => '76.2207632'
  },
  'IO-26' => {
    orbit => '33723',
    raan => '137.2538',
    meananomaly => '188.0755',
    eccentricity => '0.0008526',
    meanmotion => '14.28199696',
    inclination => '98.4247',
    number => '93061',
    argperigee => '172.0563',
    mm1 => '6.14e-06',
    mm2 => '0',
    bstar => '0.00026355',
    id => '22826',
    elset => '789',
    epoch => '76.22569757'
  },
  'NOAA-10' => {
    orbit => '70167',
    raan => '63.6807',
    meananomaly => '37.1611',
    eccentricity => '0.0012668',
    meanmotion => '14.25618647',
    inclination => '98.6375',
    number => '86073',
    argperigee => '322.9189',
    mm1 => '1.137e-05',
    mm2 => '0',
    bstar => '0.00048009',
    id => '16969',
    elset => '354',
    epoch => '76.81442697'
  },
  'KO-25' => {
    orbit => '30523',
    raan => '136.322',
    meananomaly => '203.5055',
    eccentricity => '0.0009502',
    meanmotion => '14.28586357',
    inclination => '98.4199',
    number => '93061',
    argperigee => '156.656',
    mm1 => '7.27e-06',
    mm2 => '0',
    bstar => '0.00030643',
    id => '22828',
    elset => '780',
    epoch => '75.09746027'
  },
  'NOAA-11' => {
    orbit => '59174',
    raan => '140.0836',
    meananomaly => '10.3043',
    eccentricity => '0.0011627',
    meanmotion => '14.13537147',
    inclination => '99.0123',
    number => '88089',
    argperigee => '349.8495',
    mm1 => '6.22e-06',
    mm2 => '0',
    bstar => '0.00033001',
    id => '19531',
    elset => '204',
    epoch => '76.70773444'
  },
  'NOAA-12' => {
    orbit => '45908',
    raan => '75.2602',
    meananomaly => '106.3851',
    eccentricity => '0.0012557',
    meanmotion => '14.23334793',
    inclination => '98.549',
    number => '91032',
    argperigee => '253.6473',
    mm1 => '1.146e-05',
    mm2 => '0',
    bstar => '0.00050565',
    id => '21263',
    elset => '646',
    epoch => '76.78949972'
  },
  ISS => {
    orbit => '7536',
    raan => '254.1381',
    meananomaly => '66.5063',
    eccentricity => '0.00078',
    meanmotion => '15.69547735',
    inclination => '51.5893',
    number => '98067',
    argperigee => '293.5725',
    mm1 => '0.0005149',
    mm2 => '0',
    bstar => '0.00042557',
    id => '25544',
    elset => '438',
    epoch => '76.54258277'
  },
  'NOAA-14' => {
    orbit => '26856',
    raan => '53.3114',
    meananomaly => '8.343',
    eccentricity => '0.0009469',
    meanmotion => '14.12205349',
    inclination => '99.1337',
    number => '94089',
    argperigee => '351.805',
    mm1 => '5.86e-06',
    mm2 => '0',
    bstar => '0.0003192',
    id => '23455',
    elset => '259',
    epoch => '76.79070225'
  },
  'NOAA-15' => {
    orbit => '9573',
    raan => '107.2481',
    meananomaly => '177.1497',
    eccentricity => '0.0010926',
    meanmotion => '14.23128722',
    inclination => '98.6475',
    number => '98030',
    argperigee => '183.0219',
    mm1 => '6.83e-06',
    mm2 => '0',
    bstar => '0.00030258',
    id => '25338',
    elset => '714',
    epoch => '76.79394723'
  },
  'UO-22' => {
    orbit => '45446',
    raan => '107.7854',
    meananomaly => '242.9827',
    eccentricity => '0.0008285',
    meanmotion => '14.37574028',
    inclination => '98.1642',
    number => '91050',
    argperigee => '117.2207',
    mm1 => '9.71e-06',
    mm2 => '0',
    bstar => '0.00033745',
    id => '21575',
    elset => '15',
    epoch => '75.53976977'
  },
  UARS => {
    orbit => '46506',
    raan => '27.9869',
    meananomaly => '254.8336',
    eccentricity => '0.000587',
    meanmotion => '14.98051318',
    inclination => '56.9818',
    number => '91063',
    argperigee => '105.3348',
    mm1 => '2.714e-05',
    mm2 => '0',
    bstar => '0.00024811',
    id => '21701',
    elset => '106',
    epoch => '75.23959269'
  },
  'AO-10' => {
    orbit => '12598',
    raan => '341.0792',
    meananomaly => '352.5655',
    eccentricity => '0.602384',
    meanmotion => '2.05871994',
    inclination => '27.0186',
    number => '83058',
    argperigee => '35.2063',
    mm1 => '-9.4e-07',
    mm2 => '0',
    bstar => '0.0001',
    id => '14129',
    elset => '632',
    epoch => '74.79943691'
  },
  UNK1 => {
    orbit => '446',
    raan => '280.3591',
    meananomaly => '305.6315',
    eccentricity => '0.0036379',
    meanmotion => '14.34222766',
    inclination => '100.2243',
    number => '4',
    argperigee => '54.8262',
    mm1 => '3.697e-05',
    mm2 => '0',
    bstar => '0.0013283',
    id => '26091',
    elset => '34',
    epoch => '75.10152136'
  },
  UNK2 => {
    orbit => '449',
    raan => '280.4286',
    meananomaly => '302.7904',
    eccentricity => '0.0038886',
    meanmotion => '14.34558971',
    inclination => '100.2173',
    number => '4',
    argperigee => '57.7071',
    mm1 => '2.348e-05',
    mm2 => '0',
    bstar => '0.0008449',
    id => '26092',
    elset => '38',
    epoch => '75.16312311'
  },
  UNK3 => {
    orbit => '470',
    raan => '280.3768',
    meananomaly => '301.4011',
    eccentricity => '0.0038328',
